ONEWEB-0456             
1 51646U 22012AA  24100.49117186  .00002214  00000+0  63047-2 0  9993
2 51646  87.8988 194.9647 0001972 114.1044 246.0290 13.10361271104740
ONEWEB-0457             
1 51647U 22012AB  24100.54432029  .00000364  00000+0  10066-2 0  9993
2 51647  87.9002 194.9701 0002304  95.9204 264.2186 13.10371950104756
ONEWEB-0458             
1 51648U 22012AC  24100.48950713  .00001572  00000+0  44666-2 0  9997
2 51648  87.8996 194.9961 0001924  99.4761 260.6584 13.10366315104706
ONEWEB-0461             
1 51649U 22012AD  24100.91193864 -.00000008  00000+0 -52478-4 0  9999
2 51649  87.9223 164.7069 0002204  99.6301 260.5080 13.17648196108766
ONEWEB-0463             
1 51650U 22012AE  24100.89453783  .00000052  00000+0  10090-3 0  9997
2 51650  87.9230 164.7542 0002135  98.4358 261.7016 13.17648341108544
ONEWEB-0464             
1 51651U 22012AF  24100.56255239  .00000726  00000+0  20428-2 0  9991
2 51651  87.8999 194.9702 0001689 114.4170 245.7134 13.10368498104738
ONEWEB-0468             
1 51652U 22012AG  24100.49282594  .00002158  00000+0  61448-2 0  9996
2 51652  87.8996 194.9771 0001975 105.5910 254.5435 13.10362321104701
ONEWEB-0473             
1 51653U 22012AH  24100.55425911  .00000627  00000+0  17597-2 0  9991
2 51653  87.9003 194.9683 0001846 103.8340 256.2993 13.10371280104712
